{"type": "FeatureCollection", "features": [ {"type": "Feature", "properties": {"norad_id": 65304, "name": "DRAGON CRS-33", "group": "stations", "lat": -40.041843623661435, "lon": -39.71724507116624, "alt_km": 420.3168163688724, "timestamp": "2025-12-21T14:40:46.667348+00:00", "meta": {"OBJECT_NAME": "DRAGON CRS-33", "OBJECT_ID": "2025-186A", "EPOCH": "2025-12-21T04:22:59.119680", "MEAN_MOTION": 15.49696285, "ECCENTRICITY": 0.00031756, "INCLINATION": 51.6324, "RA_OF_ASC_NODE": 100.6685, "ARG_OF_PERICENTER": 279.9061, "MEAN_ANOMALY": 80.1569, "EPHEMERIS_TYPE": 0, "CLASSIFICATION_TYPE": "U", "NORAD_CAT_ID": 65304, "ELEMENT_SET_NO": 999, "REV_AT_EPOCH": 11, "BSTAR": 0.00015703459, "MEAN_MOTION_DOT": 8.423e-05, "MEAN_MOTION_DDOT": 0}, "tle": {"line1": "1 65304U 25186A   25355.18262870  .00008423  00000+0  15703-3 0  9999", "line2": "2 65304  51.6324 100.6685 0003175 279.9061  80.1569 15.49696285   113"}}, "geometry": {"type": "Point", "coordinates": [-39.71724507116624, -40.041843623661435]}}, {"type": "Feature", "properties": {"norad_id": 65586, "name": "PROGRESS-MS 32", "group": "stations", "lat": -40.04184407668452, "lon": -39.71724425120064, "alt_km": 420.3168163678365, "timestamp": "2025-12-21T14:40:46.667360+00:00", "meta": {"OBJECT_NAME": "PROGRESS-MS 32", "OBJECT_ID": "2025-204A", "EPOCH": "2025-12-21T04:22:59.119680", "MEAN_MOTION": 15.49696285, "ECCENTRICITY": 0.00031756, "INCLINATION": 51.6324, "RA_OF_ASC_NODE": 100.6685, "ARG_OF_PERICENTER": 279.9061, "MEAN_ANOMALY": 80.1569, "EPHEMERIS_TYPE": 0, "CLASSIFICATION_TYPE": "U", "NORAD_CAT_ID": 65586, "ELEMENT_SET_NO": 999, "REV_AT_EPOCH": 27, "BSTAR": 0.00015703459, "MEAN_MOTION_DOT": 8.423e-05, "MEAN_MOTION_DDOT": 0}, "tle": {"line1": "1 65586U 25204A   25355.18262870  .00008423  00000+0  15703-3 0  9992", "line2": "2 65586  51.6324 100.6685 0003175 279.9061  80.1569 15.49696285   272"}}, "geometry": {"type": "Point", "coordinates": [-39.71724425120064, -40.04184407668452]}}, {"type": "Feature", "properties": {"norad_id": 65616, "name": "CYGNUS NG-23", "group": "stations", "lat": -40.041844454203314, "lon": -39.71724356789672, "alt_km": 420.3168163669716, "timestamp": "2025-12-21T14:40:46.667370+00:00", "meta": {"OBJECT_NAME": "CYGNUS NG-23", "OBJECT_ID": "2025-208A", "EPOCH": "2025-12-21T04:22:59.119680", "MEAN_MOTION": 15.49696285, "ECCENTRICITY": 0.00031756, "INCLINATION": 51.6324, "RA_OF_ASC_NODE": 100.6685, "ARG_OF_PERICENTER": 279.9061, "MEAN_ANOMALY": 80.1569, "EPHEMERIS_TYPE": 0, "CLASSIFICATION_TYPE": "U", "NORAD_CAT_ID": 65616, "ELEMENT_SET_NO": 999, "REV_AT_EPOCH": 22, "BSTAR": 0.00015703459, "MEAN_MOTION_DOT": 8.423e-05, "MEAN_MOTION_DDOT": 0}, "tle": {"line1": "1 65616U 25208A   25355.18262870  .00008423  00000+0  15703-3 0  9990", "line2": "2 65616  51.6324 100.6685 0003175 279.9061  80.1569 15.49696285   221"}}, "geometry": {"type": "Point", "coordinates": [-39.71724356789672, -40.041844454203314]}}, {"type": "Feature", "properties": {"norad_id": 65729, "name": "DRAGONFLY", "group": "stations", "lat": -48.776702869553915, "lon": -25.01310695914782, "alt_km": 348.68985317265924, "timestamp": "2025-12-21T14:40:46.667380+00:00", "meta": {"OBJECT_NAME": "DRAGONFLY", "OBJECT_ID": "1998-067XH", "EPOCH": "2025-12-20T23:53:54.949632", "MEAN_MOTION": 15.74592316, "ECCENTRICITY": 0.0007599, "INCLINATION": 51.6248, "RA_OF_ASC_NODE": 93.4014, "ARG_OF_PERICENTER": 329.0075, "MEAN_ANOMALY": 31.0474, "EPHEMERIS_TYPE": 0, "CLASSIFICATION_TYPE": "U", "NORAD_CAT_ID": 65729, "ELEMENT_SET_NO": 999, "REV_AT_EPOCH": 1446, "BSTAR": 0.00097794606, "MEAN_MOTION_DOT": 0.0014816, "MEAN_MOTION_DDOT": 0}, "tle": {"line1": "1 65729U 98067XH  25354.99577488  .00148160  00000+0  97795-3 0  9994", "line2": "2 65729  51.6248  93.4014 0007599 329.0075  31.0474 15.74592316 14461"}}, "geometry": {"type": "Point", "coordinates": [-25.01310695914782, -48.776702869553915]}}, {"type": "Feature", "properties": {"norad_id": 65731, "name": "1998-067XK", "group": "stations", "lat": 42.552704925682555, "lon": 138.82877064715737, "alt_km": 362.4000686359359, "timestamp": "2025-12-21T14:40:46.667391+00:00", "meta": {"OBJECT_NAME": "1998-067XK", "OBJECT_ID": "1998-067XK", "EPOCH": "2025-12-20T00:10:02.026560", "MEAN_MOTION": 15.67078773, "ECCENTRICITY": 0.00047639, "INCLINATION": 51.6294, "RA_OF_ASC_NODE": 100.3244, "ARG_OF_PERICENTER": 292.7833, "MEAN_ANOMALY": 67.2659, "EPHEMERIS_TYPE": 0, "CLASSIFICATION_TYPE": "U", "NORAD_CAT_ID": 65731, "ELEMENT_SET_NO": 999, "REV_AT_EPOCH": 1428, "BSTAR": 0.00070175188, "MEAN_MOTION_DOT": 0.00076617, "MEAN_MOTION_DDOT": 0}, "tle": {"line1": "1 65731U 98067XK  25354.00696790  .00076617  00000+0  70175-3 0  9997", "line2": "2 65731  51.6294 100.3244 0004763 292.7833  67.2659 15.67078773 14280"}}, "geometry": {"type": "Point", "coordinates": [138.82877064715737, 42.552704925682555]}}, {"type": "Feature", "properties": {"norad_id": 65732, "name": "RSP-03", "group": "stations", "lat": 34.89063458670226, "lon": -122.30395909869857, "alt_km": 355.85694714131387, "timestamp": "2025-12-21T14:40:46.667403+00:00", "meta": {"OBJECT_NAME": "RSP-03", "OBJECT_ID": "1998-067XL", "EPOCH": "2025-12-19T10:11:34.022112", "MEAN_MOTION": 15.70283101, "ECCENTRICITY": 0.0005658, "INCLINATION": 51.6265, "RA_OF_ASC_NODE": 102.4221, "ARG_OF_PERICENTER": 294.5755, "MEAN_ANOMALY": 65.4652, "EPHEMERIS_TYPE": 0, "CLASSIFICATION_TYPE": "U", "NORAD_CAT_ID": 65732, "ELEMENT_SET_NO": 999, "REV_AT_EPOCH": 1421, "BSTAR": 0.00084699, "MEAN_MOTION_DOT": 0.00106087, "MEAN_MOTION_DDOT": 0}, "tle": {"line1": "1 65732U 98067XL  25353.42469933  .00106087  00000+0  84699-3 0  9991", "line2": "2 65732  51.6265 102.4221 0005658 294.5755  65.4652 15.70283101 14217"}}, "geometry": {"type": "Point", "coordinates": [-122.30395909869857, 34.89063458670226]}}, {"type": "Feature", "properties": {"norad_id": 65733, "name": "GHS-01", "group": "stations", "lat": -51.34058449634869, "lon": 7.3523638740780655, "alt_km": 336.21383529222567, "timestamp": "2025-12-21T14:40:46.667414+00:00", "meta": {"OBJECT_NAME": "GHS-01", "OBJECT_ID": "1998-067XM", "EPOCH": "2025-12-20T20:48:16.616736", "MEAN_MOTION": 15.78264092, "ECCENTRICITY": 0.0008588, "INCLINATION": 51.6278, "RA_OF_ASC_NODE": 93.2966, "ARG_OF_PERICENTER": 331.6414, "MEAN_ANOMALY": 28.4119, "EPHEMERIS_TYPE": 0, "CLASSIFICATION_TYPE": "U", "NORAD_CAT_ID": 65733, "ELEMENT_SET_NO": 999, "REV_AT_EPOCH": 1446, "BSTAR": 0.0010694, "MEAN_MOTION_DOT": 0.00191722, "MEAN_MOTION_DDOT": 0}, "tle": {"line1": "1 65733U 98067XM  25354.86685899  .00191722  00000+0  10694-2 0  9995", "line2": "2 65733  51.6278  93.2966 0008588 331.6414  28.4119 15.78264092 14465"}}, "geometry": {"type": "Point", "coordinates": [7.3523638740780655, -51.34058449634869]}}, {"type": "Feature", "properties": {"norad_id": 65941, "name": "YOTSUBA-KULOVER", "group": "stations", "lat": -21.93813685678625, "lon": 76.73513524539725, "alt_km": 387.8886243291954, "timestamp": "2025-12-21T14:40:46.667425+00:00", "meta": {"OBJECT_NAME": "YOTSUBA-KULOVER", "OBJECT_ID": "1998-067XN", "EPOCH": "2025-12-20T17:17:02.919552", "MEAN_MOTION": 15.60468016, "ECCENTRICITY": 0.00018346, "INCLINATION": 51.6291, "RA_OF_ASC_NODE": 99.8352, "ARG_OF_PERICENTER": 329.1843, "MEAN_ANOMALY": 30.9043, "EPHEMERIS_TYPE": 0, "CLASSIFICATION_TYPE": "U", "NORAD_CAT_ID": 65941, "ELEMENT_SET_NO": 999, "REV_AT_EPOCH": 1110, "BSTAR": 0.00060496039, "MEAN_MOTION_DOT": 0.00050568, "MEAN_MOTION_DDOT": 0}, "tle": {"line1": "1 65941U 98067XN  25354.72017268  .00050568  00000+0  60496-3 0  9998", "line2": "2 65941  51.6291  99.8352 0001834 329.1843  30.9043 15.60468016 11102"}}, "geometry": {"type": "Point", "coordinates": [76.73513524539725, -21.93813685678625]}}, {"type": "Feature", "properties": {"norad_id": 65942, "name": "BOTAN", "group": "stations", "lat": 42.87545184271192, "lon": 141.77349112630284, "alt_km": 369.26314939245185, "timestamp": "2025-12-21T14:40:46.667437+00:00", "meta": {"OBJECT_NAME": "BOTAN", "OBJECT_ID": "1998-067XP", "EPOCH": "2025-12-20T13:53:44.237472", "MEAN_MOTION": 15.64441775, "ECCENTRICITY": 0.00029505, "INCLINATION": 51.6283, "RA_OF_ASC_NODE": 99.6415, "ARG_OF_PERICENTER": 304.2475, "MEAN_ANOMALY": 55.824, "EPHEMERIS_TYPE": 0, "CLASSIFICATION_TYPE": "U", "NORAD_CAT_ID": 65942, "ELEMENT_SET_NO": 999, "REV_AT_EPOCH": 1109, "BSTAR": 0.00083574073, "MEAN_MOTION_DOT": 0.00082185, "MEAN_MOTION_DDOT": 0}, "tle": {"line1": "1 65942U 98067XP  25354.57898423  .00082185  00000+0  83574-3 0  9994", "line2": "2 65942  51.6283  99.6415 0002950 304.2475  55.8240 15.64441775 11097"}}, "geometry": {"type": "Point", "coordinates": [141.77349112630284, 42.87545184271192]}}, {"type": "Feature", "properties": {"norad_id": 65943, "name": "E-KAGAKU-1", "group": "stations", "lat": -22.01895564732274, "lon": 76.65726135352185, "alt_km": 388.5192698653036, "timestamp": "2025-12-21T14:40:46.667448+00:00", "meta": {"OBJECT_NAME": "E-KAGAKU-1", "OBJECT_ID": "1998-067XQ", "EPOCH": "2025-12-18T08:24:49.666176", "MEAN_MOTION": 15.60193795, "ECCENTRICITY": 0.00013451, "INCLINATION": 51.6302, "RA_OF_ASC_NODE": 111.7666, "ARG_OF_PERICENTER": 249.8249, "MEAN_ANOMALY": 110.26, "EPHEMERIS_TYPE": 0, "CLASSIFICATION_TYPE": "U", "NORAD_CAT_ID": 65943, "ELEMENT_SET_NO": 999, "REV_AT_EPOCH": 1073, "BSTAR": 0.00084619625, "MEAN_MOTION_DOT": 0.00070368, "MEAN_MOTION_DDOT": 0}, "tle": {"line1": "1 65943U 98067XQ  25352.35057484  .00070368  00000+0  84620-3 0  9996", "line2": "2 65943  51.6302 111.7666 0001345 249.8249 110.2600 15.60193795 10732"}}, "geometry": {"type": "Point", "coordinates": [76.65726135352185, -22.01895564732274]}}]}